0 NIMBUS 2 DEB
1 28612U 66040AB  13281.80246822  .00001821  00000-0  26177-2 0  2239
2 28612 100.3973 132.3714 0054338 027.6516 030.6715 13.56717125543120
0 NIMBUS 2 DEB
1 28612U 66040AB  13283.79379751  .00001896  00000-0  27219-2 0  2248
2 28612 100.3970 134.4723 0054536 023.0659 036.4222 13.56728046543398
0 NIMBUS 2 DEB
1 28612U 66040AB  13286.81777900  .00002079  00000-0  29761-2 0  2262
2 28612 100.3967 137.6629 0054816 016.1195 045.8034 13.56738691543801
0 NIMBUS 2 DEB
1 28612U 66040AB  13288.80797690  .00002395  00000-0  34180-2 0  2274
2 28612 100.3964 139.7617 0054837 011.2435 046.4780 13.56748604544074
0 NIMBUS 2 DEB
1 28612U 66040AB  13289.84013084  .00002507  00000-0  35735-2 0  2280
2 28612 100.3963 140.8506 0054923 008.8793 047.6662 13.56752380544212
0 NIMBUS 2 DEB
1 28612U 66040AB  13291.40194565  .00002391  00000-0  34116-2 0  2293
2 28612 100.3961 142.4986 0055049 005.3136 115.8143 13.56759858544425
0 NIMBUS 2 DEB
1 28612U 66040AB  13292.43399515  .00002475  00000-0  35288-2 0  2305
2 28612 100.3961 143.5876 0055122 002.9495 116.5370 13.56764207544567
0 NIMBUS 2 DEB
1 28612U 66040AB  13293.82228073  .00002560  00000-0  36471-2 0  2310
2 28612 100.3962 145.0525 0055202 359.7715 057.2080 13.56770979544756
0 NIMBUS 2 DEB
1 28612U 66040AB  13294.85650588  .00002680  00000-0  38146-2 0  2329
2 28612 100.3965 146.1437 0055264 357.4135 068.5862 13.56776177544896
